ONEWEB-0256             
1 48974U 21060H   23319.35077381  .00000081  00000+0  17957-3 0  9993
2 48974  87.9086  56.8379 0001828  98.0611 262.0727 13.16594111115302
ONEWEB-0257             
1 48975U 21060J   23319.30856392  .00000024  00000+0  28622-4 0  9995
2 48975  87.9090  56.8189 0001603  95.1113 265.0201 13.16594916115250
ONEWEB-0258             
1 48976U 21060K   23319.31068831  .00001904  00000+0  49471-2 0  9991
2 48976  87.9086  56.8472 0001480 102.5949 257.5348 13.16583889115260
ONEWEB-0259             
1 48977U 21060L   23319.30433107 -.00000176  00000+0 -49401-3 0  9999
2 48977  87.9088  56.8331 0001594 113.4211 246.7088 13.16595392115292
ONEWEB-0260             
1 48978U 21060M   23319.75398571 -.00000044  00000+0 -14936-3 0  9993
2 48978  87.9093  56.7749 0001882  77.5762 282.5579 13.16595764116615
ONEWEB-0261             
1 48979U 21060N   23319.34021719  .00000043  00000+0  77606-4 0  9997
2 48979  87.9086  56.8480 0001164  94.0148 266.1116 13.16596024115339
ONEWEB-0262             
1 48980U 21060P   23319.32122231  .00000031  00000+0  48575-4 0  9998
2 48980  87.9089  56.8169 0001275 117.8518 242.2742 13.16597517115299
ONEWEB-0263             
1 48981U 21060Q   23319.27688951  .00000162  00000+0  39038-3 0  9997
2 48981  87.9089  56.8402 0001108 104.1584 255.9670 13.16595104115254
